{"type": "FeatureCollection", "features": [ {"type": "Feature", "properties": {"norad_id": 31752, "name": "FENGYUN 1C DEB", "group": "fengyun-1c-debris", "lat": 62.2285344829024, "lon": 51.74354589715935, "alt_km": 1023.4147823884023, "timestamp": "2025-12-22T16:55:17.747468+00:00", "meta": {"OBJECT_NAME": "FENGYUN 1C DEB", "OBJECT_ID": "1999-025CFB", "EPOCH": "2025-12-18T10:55:16.632768", "MEAN_MOTION": 13.93070684, "ECCENTRICITY": 0.03557691, "INCLINATION": 98.9786, "RA_OF_ASC_NODE": 65.0821, "ARG_OF_PERICENTER": 317.9795, "MEAN_ANOMALY": 39.4568, "EPHEMERIS_TYPE": 0, "CLASSIFICATION_TYPE": "U", "NORAD_CAT_ID": 31752, "ELEMENT_SET_NO": 999, "REV_AT_EPOCH": 93670, "BSTAR": 0.0010716417, "MEAN_MOTION_DOT": 2.302e-05, "MEAN_MOTION_DDOT": 0}, "tle": {"line1": "1 31752U 99025CFB 25352.45505362  .00002302  00000+0  10716-2 0  9993", "line2": "2 31752  98.9786  65.0821 0355769 317.9795  39.4568 13.93070684936706"}}, "geometry": {"type": "Point", "coordinates": [51.74354589715935, 62.2285344829024]}}, {"type": "Feature", "properties": {"norad_id": 31753, "name": "FENGYUN 1C DEB", "group": "fengyun-1c-debris", "lat": 17.520632268962476, "lon": -147.69100724874377, "alt_km": 720.1716676056067, "timestamp": "2025-12-22T16:55:17.747478+00:00", "meta": {"OBJECT_NAME": "FENGYUN 1C DEB", "OBJECT_ID": "1999-025CFC", "EPOCH": "2025-12-22T01:04:36.563232", "MEAN_MOTION": 14.18649838, "ECCENTRICITY": 0.01595549, "INCLINATION": 98.631, "RA_OF_ASC_NODE": 28.9179, "ARG_OF_PERICENTER": 147.0236, "MEAN_ANOMALY": 244.783, "EPHEMERIS_TYPE": 0, "CLASSIFICATION_TYPE": "U", "NORAD_CAT_ID": 31753, "ELEMENT_SET_NO": 999, "REV_AT_EPOCH": 96151, "BSTAR": 0.00025158274, "MEAN_MOTION_DOT": 5.5e-06, "MEAN_MOTION_DDOT": 0}, "tle": {"line1": "1 31753U 99025CFC 25356.04486763  .00000550  00000+0  25158-3 0  9996", "line2": "2 31753  98.6310  28.9179 0159554 147.0236 244.7830 14.18649838961518"}}, "geometry": {"type": "Point", "coordinates": [-147.69100724874377, 17.520632268962476]}}, {"type": "Feature", "properties": {"norad_id": 31754, "name": "FENGYUN 1C DEB", "group": "fengyun-1c-debris", "lat": 21.455579472852428, "lon": -41.001995519107, "alt_km": 784.8161557314033, "timestamp": "2025-12-22T16:55:17.747488+00:00", "meta": {"OBJECT_NAME": "FENGYUN 1C DEB", "OBJECT_ID": "1999-025CFD", "EPOCH": "2025-12-21T20:50:26.597760", "MEAN_MOTION": 14.42311815, "ECCENTRICITY": 0.00494183, "INCLINATION": 99.0409, "RA_OF_ASC_NODE": 321.6996, "ARG_OF_PERICENTER": 190.2997, "MEAN_ANOMALY": 169.7183, "EPHEMERIS_TYPE": 0, "CLASSIFICATION_TYPE": "U", "NORAD_CAT_ID": 31754, "ELEMENT_SET_NO": 999, "REV_AT_EPOCH": 97121, "BSTAR": 0.00084968957, "MEAN_MOTION_DOT": 2.798e-05, "MEAN_MOTION_DDOT": 0}, "tle": {"line1": "1 31754U 99025CFD 25355.86836340  .00002798  00000+0  84969-3 0  9997", "line2": "2 31754  99.0409 321.6996 0049418 190.2997 169.7183 14.42311815971217"}}, "geometry": {"type": "Point", "coordinates": [-41.001995519107, 21.455579472852428]}}, {"type": "Feature", "properties": {"norad_id": 31757, "name": "FENGYUN 1C DEB", "group": "fengyun-1c-debris", "lat": -57.3088576106559, "lon": -175.41859492648376, "alt_km": 1031.1860041696027, "timestamp": "2025-12-22T16:55:17.747498+00:00", "meta": {"OBJECT_NAME": "FENGYUN 1C DEB", "OBJECT_ID": "1999-025CFG", "EPOCH": "2025-12-19T19:34:47.252352", "MEAN_MOTION": 14.07925739, "ECCENTRICITY": 0.02177667, "INCLINATION": 98.7671, "RA_OF_ASC_NODE": 15.6869, "ARG_OF_PERICENTER": 64.1846, "MEAN_ANOMALY": 298.1612, "EPHEMERIS_TYPE": 0, "CLASSIFICATION_TYPE": "U", "NORAD_CAT_ID": 31757, "ELEMENT_SET_NO": 999, "REV_AT_EPOCH": 63981, "BSTAR": 9.3425243e-05, "MEAN_MOTION_DOT": 1.55e-06, "MEAN_MOTION_DDOT": 0}, "tle": {"line1": "1 31757U 99025CFG 25353.81582468  .00000155  00000+0  93425-4 0  9995", "line2": "2 31757  98.7671  15.6869 0217766  64.1846 298.1612 14.07925739639819"}}, "geometry": {"type": "Point", "coordinates": [-175.41859492648376, -57.3088576106559]}}, {"type": "Feature", "properties": {"norad_id": 31758, "name": "FENGYUN 1C DEB", "group": "fengyun-1c-debris", "lat": -78.3927050086661, "lon": 141.63431209637295, "alt_km": 967.7869518017696, "timestamp": "2025-12-22T16:55:17.747508+00:00", "meta": {"OBJECT_NAME": "FENGYUN 1C DEB", "OBJECT_ID": "1999-025CFH", "EPOCH": "2025-12-20T18:45:49.222944", "MEAN_MOTION": 14.42196591, "ECCENTRICITY": 0.03173131, "INCLINATION": 98.0588, "RA_OF_ASC_NODE": 3.4255, "ARG_OF_PERICENTER": 65.8513, "MEAN_ANOMALY": 297.5511, "EPHEMERIS_TYPE": 0, "CLASSIFICATION_TYPE": "U", "NORAD_CAT_ID": 31758, "ELEMENT_SET_NO": 999, "REV_AT_EPOCH": 94316, "BSTAR": 0.001401927, "MEAN_MOTION_DOT": 8.454e-05, "MEAN_MOTION_DDOT": 0}, "tle": {"line1": "1 31758U 99025CFH 25354.78181971  .00008454  00000+0  14019-2 0  9997", "line2": "2 31758  98.0588   3.4255 0317313  65.8513 297.5511 14.42196591943164"}}, "geometry": {"type": "Point", "coordinates": [141.63431209637295, -78.3927050086661]}}, {"type": "Feature", "properties": {"norad_id": 31760, "name": "FENGYUN 1C DEB", "group": "fengyun-1c-debris", "lat": -15.270763266782856, "lon": -87.54885151335488, "alt_km": 761.6059593854061, "timestamp": "2025-12-22T16:55:17.747518+00:00", "meta": {"OBJECT_NAME": "FENGYUN 1C DEB", "OBJECT_ID": "1999-025CFK", "EPOCH": "2025-12-21T01:23:42.635040", "MEAN_MOTION": 14.30205373, "ECCENTRICITY": 0.00530711, "INCLINATION": 99.254, "RA_OF_ASC_NODE": 93.2522, "ARG_OF_PERICENTER": 173.5922, "MEAN_ANOMALY": 186.5949, "EPHEMERIS_TYPE": 0, "CLASSIFICATION_TYPE": "U", "NORAD_CAT_ID": 31760, "ELEMENT_SET_NO": 999, "REV_AT_EPOCH": 96251, "BSTAR": 0.00048338519, "MEAN_MOTION_DOT": 1.222e-05, "MEAN_MOTION_DDOT": 0}, "tle": {"line1": "1 31760U 99025CFK 25355.05813235  .00001222  00000+0  48339-3 0  9995", "line2": "2 31760  99.2540  93.2522 0053071 173.5922 186.5949 14.30205373962519"}}, "geometry": {"type": "Point", "coordinates": [-87.54885151335488, -15.270763266782856]}}, {"type": "Feature", "properties": {"norad_id": 31761, "name": "FENGYUN 1C DEB", "group": "fengyun-1c-debris", "lat": 15.471451082011326, "lon": 42.53694386292741, "alt_km": 756.7908764558888, "timestamp": "2025-12-22T16:55:17.747529+00:00", "meta": {"OBJECT_NAME": "FENGYUN 1C DEB", "OBJECT_ID": "1999-025CFL", "EPOCH": "2025-12-20T02:30:09.935424", "MEAN_MOTION": 14.03556511, "ECCENTRICITY": 0.04712131, "INCLINATION": 98.6337, "RA_OF_ASC_NODE": 217.6466, "ARG_OF_PERICENTER": 242.6152, "MEAN_ANOMALY": 112.6331, "EPHEMERIS_TYPE": 0, "CLASSIFICATION_TYPE": "U", "NORAD_CAT_ID": 31761, "ELEMENT_SET_NO": 999, "REV_AT_EPOCH": 58214, "BSTAR": 0.001137025, "MEAN_MOTION_DOT": 4.795e-05, "MEAN_MOTION_DDOT": 0}, "tle": {"line1": "1 31761U 99025CFL 25354.10428166  .00004795  00000+0  11370-2 0  9998", "line2": "2 31761  98.6337 217.6466 0471213 242.6152 112.6331 14.03556511582146"}}, "geometry": {"type": "Point", "coordinates": [42.53694386292741, 15.471451082011326]}}, {"type": "Feature", "properties": {"norad_id": 31763, "name": "FENGYUN 1C DEB", "group": "fengyun-1c-debris", "lat": 77.77214696778346, "lon": -32.50520470354049, "alt_km": 815.6202262180987, "timestamp": "2025-12-22T16:55:17.747539+00:00", "meta": {"OBJECT_NAME": "FENGYUN 1C DEB", "OBJECT_ID": "1999-025CFN", "EPOCH": "2025-12-21T06:49:14.973312", "MEAN_MOTION": 13.50345592, "ECCENTRICITY": 0.05465035, "INCLINATION": 98.521, "RA_OF_ASC_NODE": 102.5013, "ARG_OF_PERICENTER": 47.4661, "MEAN_ANOMALY": 342.8081, "EPHEMERIS_TYPE": 0, "CLASSIFICATION_TYPE": "U", "NORAD_CAT_ID": 31763, "ELEMENT_SET_NO": 999, "REV_AT_EPOCH": 91121, "BSTAR": 0.00047885148, "MEAN_MOTION_DOT": 7.49e-06, "MEAN_MOTION_DDOT": 0}, "tle": {"line1": "1 31763U 99025CFN 25355.28420108  .00000749  00000+0  47885-3 0  9994", "line2": "2 31763  98.5210 102.5013 0546503  47.4661 342.8081 13.50345592911217"}}, "geometry": {"type": "Point", "coordinates": [-32.50520470354049, 77.77214696778346]}}, {"type": "Feature", "properties": {"norad_id": 31766, "name": "FENGYUN 1C DEB", "group": "fengyun-1c-debris", "lat": -67.13123691336575, "lon": 152.66358654194565, "alt_km": 831.0435034965949, "timestamp": "2025-12-22T16:55:17.747549+00:00", "meta": {"OBJECT_NAME": "FENGYUN 1C DEB", "OBJECT_ID": "1999-025CFR", "EPOCH": "2025-12-22T05:29:01.188672", "MEAN_MOTION": 14.05283405, "ECCENTRICITY": 0.00734706, "INCLINATION": 98.8171, "RA_OF_ASC_NODE": 353.7923, "ARG_OF_PERICENTER": 264.1767, "MEAN_ANOMALY": 95.1022, "EPHEMERIS_TYPE": 0, "CLASSIFICATION_TYPE": "U", "NORAD_CAT_ID": 31766, "ELEMENT_SET_NO": 999, "REV_AT_EPOCH": 64219, "BSTAR": 0.00016407086, "MEAN_MOTION_DOT": 2.28e-06, "MEAN_MOTION_DDOT": 0}, "tle": {"line1": "1 31766U 99025CFR 25356.22848598  .00000228  00000+0  16407-3 0  9997", "line2": "2 31766  98.8171 353.7923 0073470 264.1767  95.1022 14.05283405642198"}}, "geometry": {"type": "Point", "coordinates": [152.66358654194565, -67.13123691336575]}}, {"type": "Feature", "properties": {"norad_id": 31767, "name": "FENGYUN 1C DEB", "group": "fengyun-1c-debris", "lat": -29.96901294321048, "lon": -159.0168291105192, "alt_km": 911.9809192111388, "timestamp": "2025-12-22T16:55:17.747560+00:00", "meta": {"OBJECT_NAME": "FENGYUN 1C DEB", "OBJECT_ID": "1999-025CFS", "EPOCH": "2025-12-20T13:23:06.950112", "MEAN_MOTION": 14.04956804, "ECCENTRICITY": 0.0041505, "INCLINATION": 98.8209, "RA_OF_ASC_NODE": 24.0328, "ARG_OF_PERICENTER": 48.452, "MEAN_ANOMALY": 106.7669, "EPHEMERIS_TYPE": 0, "CLASSIFICATION_TYPE": "U", "NORAD_CAT_ID": 31767, "ELEMENT_SET_NO": 999, "REV_AT_EPOCH": 94935, "BSTAR": 0.00023026, "MEAN_MOTION_DOT": 3.31e-06, "MEAN_MOTION_DDOT": 0}, "tle": {"line1": "1 31767U 99025CFS 25354.55771933  .00000331  00000+0  23026-3 0  9990", "line2": "2 31767  98.8209  24.0328 0041505  48.4520 106.7669 14.04956804949355"}}, "geometry": {"type": "Point", "coordinates": [-159.0168291105192, -29.96901294321048]}}]}